[{"OBJECT_NAME":"SJ-12","OBJECT_ID":"2010-027A","EPOCH":"2026-03-10T00:04:35.105376","MEAN_MOTION":15.157144,"ECCENTRICITY":0.00084513,"INCLINATION":97.7698,"RA_OF_ASC_NODE":84.3817,"ARG_OF_PERICENTER":81.2995,"MEAN_ANOMALY":278.9193,"EPHEMERIS_TYPE":0,"CLASSIFICATION_TYPE":"U","NORAD_CAT_ID":36596,"ELEMENT_SET_NO":999,"REV_AT_EPOCH":85983,"BSTAR":0.0003694862,"MEAN_MOTION_DOT":6.976e-5,"MEAN_MOTION_DDOT":0},{"OBJECT_NAME":"STARLINK-6263","OBJECT_ID":"2023-065AY","EPOCH":"2026-03-09T22:00:01.999584","MEAN_MOTION":15.14287006,"ECCENTRICITY":0.00010273,"INCLINATION":43.0011,"RA_OF_ASC_NODE":221.3286,"ARG_OF_PERICENTER":289.7985,"MEAN_ANOMALY":235.0267,"EPHEMERIS_TYPE":0,"CLASSIFICATION_TYPE":"U","NORAD_CAT_ID":56549,"ELEMENT_SET_NO":999,"REV_AT_EPOCH":572,"BSTAR":0.0067881777,"MEAN_MOTION_DOT":0.00128532,"MEAN_MOTION_DDOT":0}]
